NORAD_CAT_ID,OBJECT_NAME,OBJECT_TYPE,EPOCH,MEAN_MOTION,ECCENTRICITY,INCLINATION,RA_OF_ASC_NODE,ARG_OF_PERICENTER,MEAN_ANOMALY,BSTAR,MEAN_MOTION_DOT,MEAN_MOTION_DDOT,TLE_LINE0,TLE_LINE1,TLE_LINE2,SEMIMAJOR_AXIS,PERIOD,APOGEE,PERIGEE,DECAYED
52358.0,STARLINK-3837,PAYLOAD,2024-03-03 20:50:35,15.08818614,0.0001584,53.217,262.3469,88.8069,271.3104,0.00054805,8.44e-05,0.0,0 STARLINK-3837,1 52358U 22045AD  24063.86846084  .00008440  00000-0  54805-3 0  9996,2 52358  53.2170 262.3469 0001584  88.8069 271.3104 15.08818614104704,6917.946,95.439,540.907,538.715,0.0
52358.0,STARLINK-3837,PAYLOAD,2024-03-04 12:44:25,15.08845441,0.0001384,53.2157,259.3783,93.3418,266.7732,0.00011017,1.466e-05,0.0,0 STARLINK-3837,1 52358U 22045AD  24064.53084780  .00001466  00000-0  11017-3 0  9997,2 52358  53.2157 259.3783 0001384  93.3418 266.7732 15.08845441104805,6917.864,95.437,540.686,538.771,0.0
52358.0,STARLINK-3837,PAYLOAD,2024-03-04 17:30:34,15.08847788,0.0001404,53.2153,258.4864,82.7321,277.383,0.00017178,2.448e-05,0.0,0 STARLINK-3837,1 52358U 22045AD  24064.72956647  .00002448  00000-0  17178-3 0  9993,2 52358  53.2153 258.4864 0001404  82.7321 277.3830 15.08847788104835,6917.857,95.437,540.693,538.75,0.0
52358.0,STARLINK-3837,PAYLOAD,2024-03-05 12:35:12,15.08839159,0.0001329,53.2156,254.9179,78.1692,281.9449,0.00012551,1.71e-05,0.0,0 STARLINK-3837,1 52358U 22045AD  24065.52445232  .00001710  00000-0  12551-3 0  9996,2 52358  53.2156 254.9179 0001329  78.1692 281.9449 15.08839159104957,6917.883,95.438,540.667,538.829,0.0
52358.0,STARLINK-3837,PAYLOAD,2024-03-05 18:56:45,15.08834544,0.0001308,53.2146,253.7291,80.1892,279.9247,-3.8032e-05,-8.93e-06,0.0,0 STARLINK-3837,1 52358U 22045AD  24065.78941317 -.00000893  00000-0 -38032-4 0  9995,2 52358  53.2146 253.7291 0001308  80.1892 279.9247 15.08834544104990,6917.897,95.438,540.667,538.857,0.0
52358.0,STARLINK-3837,PAYLOAD,2024-03-06 12:25:59,15.08836371,0.0001199,53.214,250.4543,106.1799,253.9325,6.689e-05,7.77e-06,0.0,0 STARLINK-3837,1 52358U 22045AD  24066.51805415  .00000777  00000-0  66890-4 0  9997,2 52358  53.2140 250.4543 0001199 106.1799 253.9325 15.08836371105104,6917.891,95.438,540.586,538.927,0.0
52358.0,STARLINK-3837,PAYLOAD,2024-03-06 18:47:32,15.08842971,0.0001364,53.2148,249.2656,103.4706,256.6438,8.9161e-05,1.131e-05,0.0,0 STARLINK-3837,1 52358U 22045AD  24066.78301196  .00001131  00000-0  89161-4 0  9994,2 52358  53.2148 249.2656 0001364 103.4706 256.6438 15.08842971105147,6917.871,95.437,540.68,538.793,0.0
52358.0,STARLINK-3837,PAYLOAD,2024-03-08 04:10:38,15.08840642,0.0001361,53.2151,243.0212,91.4743,268.6405,0.00016686,2.369e-05,0.0,0 STARLINK-3837,1 52358U 22045AD  24068.17405788  .00002369  00000-0  16686-3 0  9996,2 52358  53.2151 243.0212 0001361  91.4743 268.6405 15.08840642105358,6917.878,95.438,540.685,538.802,0.0
52358.0,STARLINK-3837,PAYLOAD,2024-03-08 12:07:34,15.08834114,0.0001452,53.2149,241.5355,95.3545,264.7613,7.5341e-05,9.11e-06,0.0,0 STARLINK-3837,1 52358U 22045AD  24068.50525992  .00000911  00000-0  75341-4 0  9998,2 52358  53.2149 241.5355 0001452  95.3545 264.7613 15.08834114105401,6917.898,95.438,540.768,538.759,0.0
52358.0,STARLINK-3837,PAYLOAD,2024-03-08 18:29:07,15.08838208,0.000161,53.2151,240.3456,91.5018,268.6159,8.3799e-05,1.046e-05,0.0,0 STARLINK-3837,1 52358U 22045AD  24068.77022085  .00001046  00000-0  83799-4 0  9998,2 52358  53.2151 240.3456 0001610  91.5018 268.6159 15.08838208105442,6917.886,95.438,540.865,538.637,0.0
52358.0,STARLINK-3837,PAYLOAD,2024-03-09 10:22:58,15.08836914,0.0001668,53.2172,237.3728,89.0288,271.0895,0.00022337,3.268e-05,0.0,0 STARLINK-3837,1 52358U 22045AD  24069.43262259  .00003268  00000-0  22337-3 0  9999,2 52358  53.2172 237.3728 0001668  89.0288 271.0895 15.08836914105545,6917.89,95.438,540.909,538.601,0.0
52358.0,STARLINK-3837,PAYLOAD,2024-03-09 18:19:54,15.08836745,0.0001613,53.2175,235.8862,87.1409,272.9768,0.00017942,2.568e-05,0.0,0 STARLINK-3837,1 52358U 22045AD  24069.76382259  .00002568  00000-0  17942-3 0  9996,2 52358  53.2175 235.8862 0001613  87.1409 272.9768 15.08836745105590,6917.89,95.438,540.871,538.639,0.0
52358.0,STARLINK-3837,PAYLOAD,2024-03-10 03:52:12,15.08847514,0.0001632,53.214,234.1001,76.6997,283.4177,-7.1596e-05,-1.428e-05,0.0,0 STARLINK-3837,1 52358U 22045AD  24070.16125661 -.00001428  00000-0 -71596-4 0  9996,2 52358  53.2140 234.1001 0001632  76.6997 283.4177 15.08847514105659,6917.857,95.437,540.851,538.593,0.0
52358.0,STARLINK-3837,PAYLOAD,2024-03-10 19:46:04,15.08837539,8.28e-05,53.2143,231.126,56.409,303.6982,1.0017e-05,-1.28e-06,0.0,0 STARLINK-3837,1 52358U 22045AD  24070.82366236 -.00000128  00000-0  10017-4 0  9990,2 52358  53.2143 231.1260 0000828  56.4090 303.6982 15.08837539105758,6917.888,95.438,540.326,539.18,0.0
52358.0,STARLINK-3837,PAYLOAD,2024-03-11 03:42:59,15.08844174,0.0001372,53.2153,229.6402,86.6489,273.466,7.5289e-05,9.11e-06,0.0,0 STARLINK-3837,1 52358U 22045AD  24071.15485949  .00000911  00000-0  75289-4 0  9991,2 52358  53.2153 229.6402 0001372  86.6489 273.4660 15.08844174105807,6917.868,95.437,540.682,538.783,0.0
52358.0,STARLINK-3837,PAYLOAD,2024-03-11 16:26:05,15.08833453,9.71e-05,53.2171,227.2597,90.8532,269.2571,0.00020336,2.95e-05,0.0,0 STARLINK-3837,1 52358U 22045AD  24071.68478577  .00002950  00000-0  20336-3 0  9995,2 52358  53.2171 227.2597 0000971  90.8532 269.2571 15.08833453105886,6917.9,95.438,540.437,539.094,0.0
52358.0,STARLINK-3837,PAYLOAD,2024-03-12 16:16:52,15.08841557,0.0001558,53.214,222.8019,86.3918,273.7253,0.00013747,1.901e-05,0.0,0 STARLINK-3837,1 52358U 22045AD  24072.67838217  .00001901  00000-0  13747-3 0  9999,2 52358  53.2140 222.8019 0001558  86.3918 273.7253 15.08841557106031,6917.876,95.437,540.818,538.663,0.0
52358.0,STARLINK-3837,PAYLOAD,2024-03-13 03:24:33,15.08847942,0.0001437,53.215,220.7191,82.461,277.6545,6.4673e-05,7.42e-06,0.0,0 STARLINK-3837,1 52358U 22045AD  24073.14205935  .00000742  00000-0  64673-4 0  9994,2 52358  53.2150 220.7191 0001437  82.4610 277.6545 15.08847942106101,6917.856,95.437,540.715,538.727,0.0
52358.0,STARLINK-3837,PAYLOAD,2024-03-13 09:46:07,15.08820308,0.0001745,53.2126,219.5262,107.9646,252.1537,0.00041342,6.294e-05,0.0,0 STARLINK-3837,1 52358U 22045AD  24073.40702954  .00006294  00000-0  41342-3 0  9991,2 52358  53.2126 219.5262 0001745 107.9646 252.1537 15.08820308106143,6917.941,95.439,541.013,538.598,0.0
52358.0,STARLINK-3837,PAYLOAD,2024-03-13 16:07:39,15.08841936,7.05e-05,53.2122,218.3393,90.4923,269.615,2.4701e-05,1.06e-06,0.0,0 STARLINK-3837,1 52358U 22045AD  24073.67198107  .00000106  00000-0  24701-4 0  9996,2 52358  53.2122 218.3393 0000705  90.4923 269.6150 15.08841936106188,6917.874,95.437,540.227,539.252,0.0
52358.0,STARLINK-3837,PAYLOAD,2024-03-14 19:09:12,15.08839076,0.0001814,53.2172,213.285,97.8709,262.2489,6.5213e-05,7.5e-06,0.0,0 STARLINK-3837,1 52358U 22045AD  24074.79806584  .00000750  00000-0  65213-4 0  9993,2 52358  53.2172 213.2850 0001814  97.8709 262.2489 15.08839076106355,6917.883,95.438,541.003,538.493,0.0
52358.0,STARLINK-3837,PAYLOAD,2024-03-15 12:38:28,15.08815481,9.72e-05,53.2137,210.012,100.3033,259.8069,0.00035545,5.37e-05,0.0,0 STARLINK-3837,1 52358U 22045AD  24075.52671536  .00005370  00000-0  35545-3 0  9999,2 52358  53.2137 210.0120 0000972 100.3033 259.8069 15.08815481106467,6917.955,95.439,540.493,539.148,0.0
52358.0,STARLINK-3837,PAYLOAD,2024-03-15 18:59:59,15.08847243,0.000113,53.2135,208.8232,77.3819,282.73,-0.00011036,-2.044e-05,0.0,0 STARLINK-3837,1 52358U 22045AD  24075.79166455 -.00002044  00000-0 -11036-3 0  9993,2 52358  53.2135 208.8232 0001130  77.3819 282.7300 15.08847243106505,6917.858,95.437,540.505,538.942,0.0
52358.0,STARLINK-3837,PAYLOAD,2024-03-16 12:29:14,15.08835304,0.0001507,53.2156,205.5524,109.1452,250.9703,5.06e-05,5.17e-06,0.0,0 STARLINK-3837,1 52358U 22045AD  24076.52031001  .00000517  00000-0  50600-4 0  9995,2 52358  53.2156 205.5524 0001507 109.1452 250.9703 15.08835304106612,6917.895,95.438,540.802,538.717,0.0
52358.0,STARLINK-3837,PAYLOAD,2024-03-16 14:04:37,15.08835221,0.0001548,53.2165,205.2551,110.9658,249.15,4.3414e-05,4.03e-06,0.0,0 STARLINK-3837,1 52358U 22045AD  24076.58655036  .00000403  00000-0  43414-4 0  9990,2 52358  53.2165 205.2551 0001548 110.9658 249.1500 15.08835221106626,6917.895,95.438,540.831,538.689,0.0
52358.0,STARLINK-3837,PAYLOAD,2024-03-16 15:40:01,15.08835172,0.000141,53.2163,204.9579,105.1328,254.9821,3.7738e-05,3.13e-06,0.0,0 STARLINK-3837,1 52358U 22045AD  24076.65279087  .00000313  00000-0  37738-4 0  9998,2 52358  53.2163 204.9579 0001410 105.1328 254.9821 15.08835172106634,6917.895,95.438,540.736,538.785,0.0
52358.0,STARLINK-3837,PAYLOAD,2024-03-17 13:55:24,15.08838083,0.0001415,53.2168,200.7955,103.2658,256.8492,9.2151e-05,1.179e-05,0.0,0 STARLINK-3837,1 52358U 22045AD  24077.58014986  .00001179  00000-0  92151-4 0  9997,2 52358  53.2168 200.7955 0001415 103.2658 256.8492 15.08838083106775,6917.886,95.438,540.73,538.772,0.0
52358.0,STARLINK-3837,PAYLOAD,2024-03-17 17:06:11,15.08840568,0.0001408,53.217,200.2008,101.8066,258.3084,0.00011327,1.515e-05,0.0,0 STARLINK-3837,1 52358U 22045AD  24077.71262809  .00001515  00000-0  11327-3 0  9990,2 52358  53.2170 200.2008 0001408 101.8066 258.3084 15.08840568106798,6917.879,95.438,540.718,538.77,0.0
52358.0,STARLINK-3837,PAYLOAD,2024-03-18 12:10:49,15.08835862,0.0001525,53.2183,196.6335,95.1952,264.9214,7.6949e-05,9.37e-06,0.0,0 STARLINK-3837,1 52358U 22045AD  24078.50751434  .00000937  00000-0  76949-4 0  9994,2 52358  53.2183 196.6335 0001525  95.1952 264.9214 15.08835862106915,6917.893,95.438,540.813,538.703,0.0
52358.0,STARLINK-3837,PAYLOAD,2024-03-18 16:56:58,15.08837513,0.0001506,53.2177,195.7406,88.4327,271.6837,8.4975e-05,1.065e-05,0.0,0 STARLINK-3837,1 52358U 22045AD  24078.70623375  .00001065  00000-0  84975-4 0  9999,2 52358  53.2177 195.7406 0001506  88.4327 271.6837 15.08837513106941,6917.888,95.438,540.795,538.711,0.0
